{
    "links": {
        "self": "http://www.neowsapp.com/rest/v1/neo/54017560?api_key=iIulBulltgU6a56xZRHN4H3l9WmuAYTsLGpBGhQ2"
    },
    "id": "54017560",
    "neo_reference_id": "54017560",
    "name": "(2020 MY)",
    "designation": "2020 MY",
    "nasa_jpl_url": "http://ssd.jpl.nasa.gov/sbdb.cgi?sstr=54017560",
    "absolute_magnitude_h": 20.589,
    "estimated_diameter": {
        "kilometers": {
            "estimated_diameter_min": 0.202653905,
            "estimated_diameter_max": 0.4531479074
        },
        "meters": {
            "estimated_diameter_min": 202.6539049512,
            "estimated_diameter_max": 453.1479073766
        },
        "miles": {
            "estimated_diameter_min": 0.1259232596,
            "estimated_diameter_max": 0.2815729684
        },
        "feet": {
            "estimated_diameter_min": 664.87503752,
            "estimated_diameter_max": 1486.7057804374
        }
    },
    "is_potentially_hazardous_asteroid": false,
    "close_approach_data": [
        {
            "close_approach_date": "2020-07-05",
            "close_approach_date_full": "2020-Jul-05 07:44",
            "epoch_date_close_approach": 1593935040000,
            "relative_velocity": {
                "kilometers_per_second": "16.8441940709",
                "kilometers_per_hour": "60639.0986553224",
                "miles_per_hour": "37678.7777172474"
            },
            "miss_distance": {
                "astronomical": "0.2271660019",
                "lunar": "88.3675747391",
                "kilometers": "33983550.020655953",
                "miles": "21116398.8024120314"
            },
            "orbiting_body": "Earth"
        }
    ],
    "orbital_data": {
        "orbit_id": "4",
        "orbit_determination_date": "2020-07-02 05:56:00",
        "first_observation_date": "2020-06-19",
        "last_observation_date": "2020-07-01",
        "data_arc_in_days": 12,
        "observations_used": 63,
        "orbit_uncertainty": "9",
        "minimum_orbit_intersection": ".114112",
        "jupiter_tisserand_invariant": "3.363",
        "epoch_osculation": "2459020.5",
        "eccentricity": ".6214620635945354",
        "semi_major_axis": "2.197666395645403",
        "inclination": "12.30854809508299",
        "ascending_node_longitude": "181.2551990427461",
        "orbital_period": "1189.98387935317",
        "perihelion_distance": ".8319001023152462",
        "perihelion_argument": "163.2315803881426",
        "aphelion_distance": "3.56343268897556",
        "perihelion_time": "2459074.371688530758",
        "mean_anomaly": "343.7024616824098",
        "mean_motion": ".3025251066389926",
        "equinox": "J2000",
        "orbit_class": {
            "orbit_class_type": "APO",
            "orbit_class_description": "Near-Earth asteroid orbits which cross the Earth’s orbit similar to that of 1862 Apollo",
            "orbit_class_range": "a (semi-major axis) > 1.0 AU; q (perihelion) < 1.017 AU"
        }
    },
    "is_sentry_object": false
}